[
  {
    "OBJECT_NAME": "STARLINK-11333 [DTC]",
    "OBJECT_ID": "2024-237G",
    "EPOCH": "2025-06-28T04:54:24.172416",
    "MEAN_MOTION": 15.70946824,
    "ECCENTRICITY": 8.5e-05,
    "INCLINATION": 42.9989,
    "RA_OF_ASC_NODE": 150.9842,
    "ARG_OF_PERICENTER": 219.0874,
    "MEAN_ANOMALY": 140.9932,
    "EPHEMERIS_TYPE": 0,
    "CLASSIFICATION_TYPE": "U",
    "NORAD_CAT_ID": 62273,
    "ELEMENT_SET_NO": 999,
    "REV_AT_EPOCH": 3302,
    "BSTAR": 0.0015952,
    "MEAN_MOTION_DOT": 0.00210446,
    "MEAN_MOTION_DDOT": 0
  },
  {
    "OBJECT_NAME": "STARLINK-11504 [DTC]",
    "OBJECT_ID": "2024-237H",
    "EPOCH": "2025-06-27T23:56:47.374656",
    "MEAN_MOTION": 15.70945194,
    "ECCENTRICITY": 0.0001945,
    "INCLINATION": 43.0002,
    "RA_OF_ASC_NODE": 152.0043,
    "ARG_OF_PERICENTER": 249.3565,
    "MEAN_ANOMALY": 110.7094,
    "EPHEMERIS_TYPE": 0,
    "CLASSIFICATION_TYPE": "U",
    "NORAD_CAT_ID": 62274,
    "ELEMENT_SET_NO": 999,
    "REV_AT_EPOCH": 3294,
    "BSTAR": 0.0013197,
    "MEAN_MOTION_DOT": 0.00173229,
    "MEAN_MOTION_DDOT": 0
  },
  {
    "OBJECT_NAME": "STARLINK-11495 [DTC]",
    "OBJECT_ID": "2024-237J",
    "EPOCH": "2025-06-28T06:48:54.048960",
    "MEAN_MOTION": 15.70885123,
    "ECCENTRICITY": 0.0002165,
    "INCLINATION": 43.0019,
    "RA_OF_ASC_NODE": 150.7287,
    "ARG_OF_PERICENTER": 266.8974,
    "MEAN_ANOMALY": 93.1646,
    "EPHEMERIS_TYPE": 0,
    "CLASSIFICATION_TYPE": "U",
    "NORAD_CAT_ID": 62275,
    "ELEMENT_SET_NO": 999,
    "REV_AT_EPOCH": 3298,
    "BSTAR": 0.0013865,
    "MEAN_MOTION_DOT": 0.0018175,
    "MEAN_MOTION_DDOT": 0
  },
  {
    "OBJECT_NAME": "STARLINK-11498 [DTC]",
    "OBJECT_ID": "2024-237K",
    "EPOCH": "2025-06-28T14:49:27.734304",
    "MEAN_MOTION": 15.70875765,
    "ECCENTRICITY": 8.82e-05,
    "INCLINATION": 42.9988,
    "RA_OF_ASC_NODE": 148.0429,
    "ARG_OF_PERICENTER": 39.564,
    "MEAN_ANOMALY": 320.5292,
    "EPHEMERIS_TYPE": 0,
    "CLASSIFICATION_TYPE": "U",
    "NORAD_CAT_ID": 62276,
    "ELEMENT_SET_NO": 999,
    "REV_AT_EPOCH": 3308,
    "BSTAR": 0.0012845,
    "MEAN_MOTION_DOT": 0.00167994,
    "MEAN_MOTION_DDOT": 0
  },
  {
    "OBJECT_NAME": "STARLINK-11484 [DTC]",
    "OBJECT_ID": "2024-237L",
    "EPOCH": "2025-06-28T15:04:44.595552",
    "MEAN_MOTION": 15.70881557,
    "ECCENTRICITY": 0.0001235,
    "INCLINATION": 43.0006,
    "RA_OF_ASC_NODE": 148.1314,
    "ARG_OF_PERICENTER": 278.1018,
    "MEAN_ANOMALY": 81.9709,
    "EPHEMERIS_TYPE": 0,
    "CLASSIFICATION_TYPE": "U",
    "NORAD_CAT_ID": 62277,
    "ELEMENT_SET_NO": 999,
    "REV_AT_EPOCH": 3308,
    "BSTAR": 0.0013507,
    "MEAN_MOTION_DOT": 0.0017691,
    "MEAN_MOTION_DDOT": 0
  },
  {
    "OBJECT_NAME": "STARLINK-11487 [DTC]",
    "OBJECT_ID": "2024-237M",
    "EPOCH": "2025-06-28T08:05:10.224096",
    "MEAN_MOTION": 15.70858134,
    "ECCENTRICITY": 0.0001446,
    "INCLINATION": 42.9998,
    "RA_OF_ASC_NODE": 150.2605,
    "ARG_OF_PERICENTER": 268.5837,
    "MEAN_ANOMALY": 91.4865,
    "EPHEMERIS_TYPE": 0,
    "CLASSIFICATION_TYPE": "U",
    "NORAD_CAT_ID": 62278,
    "ELEMENT_SET_NO": 999,
    "REV_AT_EPOCH": 3304,
    "BSTAR": 0.00097654,
    "MEAN_MOTION_DOT": 0.00126881,
    "MEAN_MOTION_DDOT": 0
  },
  {
    "OBJECT_NAME": "STARLINK-11499 [DTC]",
    "OBJECT_ID": "2024-237N",
    "EPOCH": "2025-06-28T06:50:14.425152",
    "MEAN_MOTION": 15.70927908,
    "ECCENTRICITY": 0.0002242,
    "INCLINATION": 43.0028,
    "RA_OF_ASC_NODE": 150.7346,
    "ARG_OF_PERICENTER": 290.1351,
    "MEAN_ANOMALY": 69.9275,
    "EPHEMERIS_TYPE": 0,
    "CLASSIFICATION_TYPE": "U",
    "NORAD_CAT_ID": 62279,
    "ELEMENT_SET_NO": 999,
    "REV_AT_EPOCH": 3296,
    "BSTAR": 0.0015917,
    "MEAN_MOTION_DOT": 0.00209804,
    "MEAN_MOTION_DDOT": 0
  },
  {
    "OBJECT_NAME": "STARLINK-33548",
    "OBJECT_ID": "2024-237P",
    "EPOCH": "2025-06-28T18:27:44.432928",
    "MEAN_MOTION": 15.27589977,
    "ECCENTRICITY": 0.0001716,
    "INCLINATION": 43.0034,
    "RA_OF_ASC_NODE": 199.5146,
    "ARG_OF_PERICENTER": 274.2862,
    "MEAN_ANOMALY": 85.7794,
    "EPHEMERIS_TYPE": 0,
    "CLASSIFICATION_TYPE": "U",
    "NORAD_CAT_ID": 62280,
    "ELEMENT_SET_NO": 999,
    "REV_AT_EPOCH": 3248,
    "BSTAR": 0.0005347,
    "MEAN_MOTION_DOT": 0.00014485,
    "MEAN_MOTION_DDOT": 0
  },
  {
    "OBJECT_NAME": "STARLINK-33544",
    "OBJECT_ID": "2024-237Q",
    "EPOCH": "2025-06-28T11:54:26.226432",
    "MEAN_MOTION": 15.27581272,
    "ECCENTRICITY": 0.0001443,
    "INCLINATION": 42.9979,
    "RA_OF_ASC_NODE": 212.1468,
    "ARG_OF_PERICENTER": 268.0907,
    "MEAN_ANOMALY": 91.9779,
    "EPHEMERIS_TYPE": 0,
    "CLASSIFICATION_TYPE": "U",
    "NORAD_CAT_ID": 62281,
    "ELEMENT_SET_NO": 999,
    "REV_AT_EPOCH": 3231,
    "BSTAR": 0.00063348,
    "MEAN_MOTION_DOT": 0.00017211,
    "MEAN_MOTION_DDOT": 0
  },
  {
    "OBJECT_NAME": "STARLINK-33560",
    "OBJECT_ID": "2024-237R",
    "EPOCH": "2025-06-28T19:19:19.058016",
    "MEAN_MOTION": 15.27586526,
    "ECCENTRICITY": 9.86e-05,
    "INCLINATION": 42.9999,
    "RA_OF_ASC_NODE": 210.1609,
    "ARG_OF_PERICENTER": 297.4296,
    "MEAN_ANOMALY": 62.6456,
    "EPHEMERIS_TYPE": 0,
    "CLASSIFICATION_TYPE": "U",
    "NORAD_CAT_ID": 62282,
    "ELEMENT_SET_NO": 999,
    "REV_AT_EPOCH": 3224,
    "BSTAR": 0.00073923,
    "MEAN_MOTION_DOT": 0.00020139,
    "MEAN_MOTION_DDOT": 0
  },
  {
    "OBJECT_NAME": "STARLINK-33547",
    "OBJECT_ID": "2024-237S",
    "EPOCH": "2025-06-28T08:57:15.142752",
    "MEAN_MOTION": 15.27582414,
    "ECCENTRICITY": 0.0001435,
    "INCLINATION": 43.0009,
    "RA_OF_ASC_NODE": 201.6955,
    "ARG_OF_PERICENTER": 261.157,
    "MEAN_ANOMALY": 98.9119,
    "EPHEMERIS_TYPE": 0,
    "CLASSIFICATION_TYPE": "U",
    "NORAD_CAT_ID": 62283,
    "ELEMENT_SET_NO": 999,
    "REV_AT_EPOCH": 3242,
    "BSTAR": 0.00032812,
    "MEAN_MOTION_DOT": 8.778e-05,
    "MEAN_MOTION_DDOT": 0
  },
  {
    "OBJECT_NAME": "STARLINK-33563",
    "OBJECT_ID": "2024-237T",
    "EPOCH": "2025-06-28T19:28:33.483360",
    "MEAN_MOTION": 15.27586844,
    "ECCENTRICITY": 0.0002047,
    "INCLINATION": 42.9996,
    "RA_OF_ASC_NODE": 210.2093,
    "ARG_OF_PERICENTER": 267.5238,
    "MEAN_ANOMALY": 92.5379,
    "EPHEMERIS_TYPE": 0,
    "CLASSIFICATION_TYPE": "U",
    "NORAD_CAT_ID": 62284,
    "ELEMENT_SET_NO": 999,
    "REV_AT_EPOCH": 3236,
    "BSTAR": 0.00039959,
    "MEAN_MOTION_DOT": 0.00010752,
    "MEAN_MOTION_DDOT": 0
  },
  {
    "OBJECT_NAME": "STARLINK-33550",
    "OBJECT_ID": "2024-237U",
    "EPOCH": "2025-06-28T19:13:45.625728",
    "MEAN_MOTION": 15.27583747,
    "ECCENTRICITY": 0.0001043,
    "INCLINATION": 42.9986,
    "RA_OF_ASC_NODE": 210.1302,
    "ARG_OF_PERICENTER": 265.195,
    "MEAN_ANOMALY": 94.8782,
    "EPHEMERIS_TYPE": 0,
    "CLASSIFICATION_TYPE": "U",
    "NORAD_CAT_ID": 62285,
    "ELEMENT_SET_NO": 999,
    "REV_AT_EPOCH": 3236,
    "BSTAR": 0.00054695,
    "MEAN_MOTION_DOT": 0.00014821,
    "MEAN_MOTION_DDOT": 0
  },
  {
    "OBJECT_NAME": "STARLINK-33564",
    "OBJECT_ID": "2024-237V",
    "EPOCH": "2025-06-28T19:34:07.224960",
    "MEAN_MOTION": 15.27580641,
    "ECCENTRICITY": 0.0001489,
    "INCLINATION": 43,
    "RA_OF_ASC_NODE": 210.2457,
    "ARG_OF_PERICENTER": 284.4695,
    "MEAN_ANOMALY": 75.5991,
    "EPHEMERIS_TYPE": 0,
    "CLASSIFICATION_TYPE": "U",
    "NORAD_CAT_ID": 62286,
    "ELEMENT_SET_NO": 999,
    "REV_AT_EPOCH": 3236,
    "BSTAR": 0.00073947,
    "MEAN_MOTION_DOT": 0.00020143,
    "MEAN_MOTION_DDOT": 0
  }
]