STARLINK-11333 [DTC]    
1 62273U 24237G   25179.20444644  .00210446  00000+0  15952-2 0  9990
2 62273  42.9989 150.9842 0000850 219.0874 140.9932 15.70946824 33028
STARLINK-11504 [DTC]    
1 62274U 24237H   25178.99777054  .00173229  00000+0  13197-2 0  9996
2 62274  43.0002 152.0043 0001945 249.3565 110.7094 15.70945194 32945
STARLINK-11495 [DTC]    
1 62275U 24237J   25179.28395890  .00181750  00000+0  13865-2 0  9994
2 62275  43.0019 150.7287 0002165 266.8974  93.1646 15.70885123 32988
STARLINK-11498 [DTC]    
1 62276U 24237K   25179.61768211  .00167994  00000+0  12845-2 0  9994
2 62276  42.9988 148.0429 0000882  39.5640 320.5292 15.70875765 33086
STARLINK-11484 [DTC]    
1 62277U 24237L   25179.62829393  .00176910  00000+0  13507-2 0  9999
2 62277  43.0006 148.1314 0001235 278.1018  81.9709 15.70881557 33084
STARLINK-11487 [DTC]    
1 62278U 24237M   25179.33692389  .00126881  00000+0  97654-3 0  9999
2 62278  42.9998 150.2605 0001446 268.5837  91.4865 15.70858134 33046
STARLINK-11499 [DTC]    
1 62279U 24237N   25179.28488918  .00209804  00000+0  15917-2 0  9993
2 62279  43.0028 150.7346 0002242 290.1351  69.9275 15.70927908 32968
STARLINK-33548          
1 62280U 24237P   25179.76926427  .00014485  00000+0  53470-3 0  9996
2 62280  43.0034 199.5146 0001716 274.2862  85.7794 15.27589977 32482
STARLINK-33544          
1 62281U 24237Q   25179.49613688  .00017211  00000+0  63348-3 0  9994
2 62281  42.9979 212.1468 0001443 268.0907  91.9779 15.27581272 32310
STARLINK-33560          
1 62282U 24237R   25179.80508169  .00020139  00000+0  73923-3 0  9990
2 62282  42.9999 210.1609 0000986 297.4296  62.6456 15.27586526 32242
STARLINK-33547          
1 62283U 24237S   25179.37309193  .00008778  00000+0  32812-3 0  9996
2 62283  43.0009 201.6955 0001435 261.1570  98.9119 15.27582414 32429
STARLINK-33563          
1 62284U 24237T   25179.81149865  .00010752  00000+0  39959-3 0  9998
2 62284  42.9996 210.2093 0002047 267.5238  92.5379 15.27586844 32365
STARLINK-33550          
1 62285U 24237U   25179.80122252  .00014821  00000+0  54695-3 0  9994
2 62285  42.9986 210.1302 0001043 265.1950  94.8782 15.27583747 32369
STARLINK-33564          
1 62286U 24237V   25179.81536140  .00020143  00000+0  73947-3 0  9996
2 62286  43.0000 210.2457 0001489 284.4695  75.5991 15.27580641 32363
